{
    "CCSDS_OMM_VERS": "3.0",
    "COMMENT": "GENERATED VIA SPACE-TRACK.ORG API",
    "CREATION_DATE": "2025-11-23T14:26:32",
    "ORIGINATOR": "18 SPCS",
    "OBJECT_NAME": "NAVSTAR 72 (USA 258)",
    "OBJECT_ID": "2014-068A",
    "CENTER_NAME": "EARTH",
    "REF_FRAME": "TEME",
    "TIME_SYSTEM": "UTC",
    "MEAN_ELEMENT_THEORY": "SGP4",
    "EPOCH": "2025-11-23T00:20:56.098752",
    "MEAN_MOTION": "2.00563752",
    "ECCENTRICITY": "0.00608960",
    "INCLINATION": "56.8437",
    "RA_OF_ASC_NODE": "38.9093",
    "ARG_OF_PERICENTER": "69.5705",
    "MEAN_ANOMALY": "291.1318",
    "EPHEMERIS_TYPE": "0",
    "CLASSIFICATION_TYPE": "U",
    "NORAD_CAT_ID": "40294",
    "ELEMENT_SET_NO": "999",
    "REV_AT_EPOCH": "8107",
    "BSTAR": "0.00000000000000",
    "MEAN_MOTION_DOT": "-0.00000065",
    "MEAN_MOTION_DDOT": "0.0000000000000",
    "SEMIMAJOR_AXIS": "26560.335",
    "PERIOD": "717.976",
    "APOAPSIS": "20343.942",
    "PERIAPSIS": "20020.458",
    "OBJECT_TYPE": "PAYLOAD",
    "RCS_SIZE": "LARGE",
    "COUNTRY_CODE": "US",
    "LAUNCH_DATE": "2014-10-29",
    "SITE": "AFETR",
    "DECAY_DATE": null,
    "FILE": "4895616",
    "GP_ID": "303302316",
    "TLE_LINE0": "0 NAVSTAR 72 (USA 258)",
    "TLE_LINE1": "1 40294U 14068A   25327.01453818 -.00000065  00000-0  00000+0 0  9998",
    "TLE_LINE2": "2 40294  56.8437  38.9093 0060896  69.5705 291.1318  2.00563752 81078"
}